0 PSLV DEB
1 27128U 01049BY  13282.14116745  .00007277  00000-0  77047-3 0  3286
2 27128 097.4101 080.7065 0088501 076.8964 343.0241 14.86528204635531
0 PSLV DEB
1 27128U 01049BY  13283.15108162  .00005859  00000-0  62148-3 0  3293
2 27128 097.4099 081.6486 0088410 073.5804 347.5644 14.86539856635687
0 PSLV DEB
1 27128U 01049BY  13284.15986834  .00006129  00000-0  64990-3 0  3304
2 27128 097.4096 082.5894 0088301 070.2681 346.1135 14.86546775635838
0 PSLV DEB
1 27128U 01049BY  13286.17884274  .00005557  00000-0  58951-3 0  3329
2 27128 097.4090 084.4724 0088244 063.6855 350.7523 14.86566376636135
0 PSLV DEB
1 27128U 01049BY  13287.39086970  .00006217  00000-0  65872-3 0  3336
2 27128 097.4089 085.6027 0088213 059.6798 357.0926 14.86575837636318
0 PSLV DEB
1 27128U 01049BY  13288.40018692  .00008097  00000-0  85573-3 0  3344
2 27128 097.4089 086.5442 0088157 056.3444 358.6443 14.86593346636460
0 PSLV DEB
1 27128U 01049BY  13289.40521730  .00006355  00000-0  67285-3 0  3353
2 27128 097.4090 087.4817 0088051 052.9888 337.3449 14.86606393636619
0 PSLV DEB
1 27128U 01049BY  13290.41462420  .00006651  00000-0  70391-3 0  3368
2 27128 097.4091 088.4234 0087939 049.6353 339.4940 14.86615135636767
0 PSLV DEB
1 27128U 01049BY  13291.42431764  .00005990  00000-0  63449-3 0  3379
2 27128 097.4094 089.3653 0087837 046.3218 343.1747 14.86624773636918
0 PSLV DEB
1 27128U 01049BY  13292.43321152  .00005800  00000-0  61448-3 0  3388
2 27128 097.4096 090.3064 0087776 043.0224 342.5968 14.86634683637067
0 PSLV DEB
1 27128U 01049BY  13293.51310091  .00006783  00000-0  71751-3 0  3398
2 27128 097.4101 091.3138 0087752 039.5195 001.9876 14.86644969637228
0 PSLV DEB
1 27128U 01049BY  13294.73828301  .00007790  00000-0  82287-3 0  3408
2 27128 097.4104 092.4568 0087705 035.4449 079.1084 14.86657272637404
0 PSLV DEB
1 27128U 01049BY  13295.74806652  .00006693  00000-0  70778-3 0  3419
2 27128 097.4106 093.3990 0087625 032.1016 083.4514 14.86669713637555
